NAVSTAR 77 (USA 289)    
1 43873U 18109A   23274.82197801  .00000023  00000+0  00000+0 0  9991
2 43873  55.2008 131.2785 0026211 190.1234 162.7552  2.00569811 35228
